[{"OBJECT_NAME":"STARLINK-31180","OBJECT_ID":"2024-005E","EPOCH":"2026-03-09T21:07:43.552416","MEAN_MOTION":15.26747824,"ECCENTRICITY":0.00016342,"INCLINATION":43.0014,"RA_OF_ASC_NODE":218.6106,"ARG_OF_PERICENTER":269.2542,"MEAN_ANOMALY":90.8123,"EPHEMERIS_TYPE":0,"CLASSIFICATION_TYPE":"U","NORAD_CAT_ID":58732,"ELEMENT_SET_NO":999,"REV_AT_EPOCH":12046,"BSTAR":0.00057457477,"MEAN_MOTION_DOT":0.00015188,"MEAN_MOTION_DDOT":0},{"OBJECT_NAME":"OBJECT L","OBJECT_ID":"2024-024L","EPOCH":"2026-03-09T22:36:05.522976","MEAN_MOTION":15.29373491,"ECCENTRICITY":0.00073185,"INCLINATION":97.3169,"RA_OF_ASC_NODE":137.7038,"ARG_OF_PERICENTER":167.6369,"MEAN_ANOMALY":192.5052,"EPHEMERIS_TYPE":0,"CLASSIFICATION_TYPE":"U","NORAD_CAT_ID":58927,"ELEMENT_SET_NO":999,"REV_AT_EPOCH":9318,"BSTAR":0.00043092344,"MEAN_MOTION_DOT":0.00012217,"MEAN_MOTION_DDOT":0}]
